ONEWEB-0456             
1 51646U 22012AA  25355.58307783  .00000525  00000+0  14686-2 0  9998
2 51646  87.8815  71.6353 0001362  88.1213 272.0070 13.10375213186088
ONEWEB-0457             
1 51647U 22012AB  25355.48346077 -.00001559  00000+0 -45018-2 0  9990
2 51647  87.8804  71.7038 0001583 116.0681 244.0609 13.10379507186079
ONEWEB-0458             
1 51648U 22012AC  25355.58141660  .00000487  00000+0  13590-2 0  9990
2 51648  87.8812  71.6584 0001899 105.4671 254.6666 13.10375994186048
ONEWEB-0461             
1 51649U 22012AD  25355.61439902 -.00000011  00000+0 -61192-4 0  9992
2 51649  87.9110  41.1520 0001682 100.5032 259.6289 13.17648569190500
ONEWEB-0463             
1 51650U 22012AE  25355.59582738  .00000050  00000+0  94815-4 0  9996
2 51650  87.9095  41.1976 0001864 100.5332 259.6009 13.17649590190284
ONEWEB-0464             
1 51651U 22012AF  25355.50172525  .00000114  00000+0  28919-3 0  9999
2 51651  87.8803  71.7095 0001761  94.3879 265.7449 13.10369754186054
ONEWEB-0468             
1 51652U 22012AG  25355.50838486  .00000694  00000+0  19524-2 0  9999
2 51652  87.8806  71.7013 0001883  98.9631 261.1710 13.10374374186032
ONEWEB-0473             
1 51653U 22012AH  25354.65350822  .00000098  00000+0  24541-3 0  9992
2 51653  87.8804  71.8751 0001835 103.3290 256.8042 13.10376090185923
ONEWEB-0474             
1 51654U 22012AJ  25355.17970277 -.00000414  00000+0 -12212-2 0  9998
2 51654  87.8816  71.7375 0001905  96.3830 263.7514 13.10374657185981
ONEWEB-0475             
1 51655U 22012AK  25355.53169984  .00000029  00000+0  42559-4 0  9993
2 51655  87.9099  41.2002 0002480  92.4374 267.7041 13.17650274190292
ONEWEB-0490             
1 54113U 22138A   25355.49584585 -.00000114  00000+0 -31796-3 0  9994
2 54113  87.9217 340.3125 0001944  78.2863 281.8488 13.19725411153394
ONEWEB-0492             
1 54114U 22138B   25355.52110737  .00000091  00000+0  19477-3 0  9997
2 54114  87.9202 340.3225 0001752  79.5100 280.6230 13.19725610153400
ONEWEB-0495             
1 54115U 22138C   25355.49899991 -.00000100  00000+0 -28265-3 0  9998
2 54115  87.9201 340.3300 0002284  70.0686 290.0692 13.19724768153387
ONEWEB-0497             
1 54116U 22138D   25355.51163876  .00000031  00000+0  45013-4 0  9990
2 54116  87.9207 340.3142 0001816  82.8927 277.2412 13.19724957153373
ONEWEB-0499             
1 54117U 22138E   25355.49505001  .00000011  00000+0 -56329-5 0  9990
2 54117  87.9208 340.3304 0002010  85.3717 274.7645 13.19726261153388
ONEWEB-0500             
1 54118U 22138F   25355.49742728 -.00000039  00000+0 -13003-3 0  9991
2 54118  87.9206 340.3172 0001738  81.0798 279.0532 13.19725006153398
ONEWEB-0501             
1 54119U 22138G   25355.45162567 -.00000001  00000+0 -34299-4 0  9995
2 54119  87.9214 340.3256 0002056  77.5656 282.5707 13.19725757153361
ONEWEB-0502             
1 54120U 22138H   25355.51321813  .00000044  00000+0  77640-4 0  9997
2 54120  87.9212 340.2951 0002051  81.8886 278.2480 13.19725629153391
ONEWEB-0503             
1 54121U 22138J   25355.35052643 -.00000002  00000+0 -36739-4 0  9992
2 54121  87.9215 340.3314 0001993  92.2486 267.8875 13.19725628153363
ONEWEB-0504             
1 54122U 22138K   25355.33789030  .00000064  00000+0  12688-3 0  9990
2 54122  87.9211 340.3496 0002083  83.1021 277.0348 13.19724496153377
ONEWEB-0505             
1 54123U 22138L   25355.33473075 -.00000005  00000+0 -43602-4 0  9998
2 54123  87.9216 340.3404 0002245  78.0597 282.0787 13.19724928153354
ONEWEB-0506             
1 54124U 22138M   25355.38528046  .00000076  00000+0  15692-3 0  9996
2 54124  87.9208 340.3274 0001943  81.9830 278.1523 13.19725220153358
ONEWEB-0507             
1 54125U 22138N   25355.40581452  .00000014  00000+0  16627-5 0  9993
2 54125  87.9197 340.3571 0001920  78.3078 281.8270 13.19724717153401
ONEWEB-0508             
1 54126U 22138P   25355.32683341  .00000071  00000+0  14594-3 0  9997
2 54126  87.9206 340.3674 0001963  75.5249 284.6102 13.19726070153378
ONEWEB-0509             
1 54127U 22138Q   25355.45319820  .00000095  00000+0  20616-3 0  9998
2 54127  87.9217 340.3137 0001884  82.4219 277.7128 13.19724610153369
ONEWEB-0510             
1 54128U 22138R   25355.40606220 -.00000025  00000+0 -92258-4 0  9994
2 54128  87.9216 309.8910 0001580  92.8624 267.2691 13.20770397155812
ONEWEB-0511             
1 54129U 22138S   25355.45004272  .00000001  00000+0 -28854-4 0  9993
2 54129  87.9216 340.3178 0002057  90.8590 269.2778 13.19725727153393
ONEWEB-0512             
1 54130U 22138T   25355.51795462 -.00000038  00000+0 -12747-3 0  9994
2 54130  87.9201 340.3275 0002173  81.0897 279.0482 13.19725782153378
ONEWEB-0513             
1 54131U 22138U   25355.44436561 -.00000031  00000+0 -10892-3 0  9991
2 54131  87.9217 340.3037 0002761  83.8778 276.2669 13.20260233153264
ONEWEB-0514             
1 54132U 22138V   25355.45793525  .00000070  00000+0  14176-3 0  9999
2 54132  87.9206 340.3254 0001823  87.5154 272.6188 13.19724819153383
ONEWEB-0515             
1 54133U 22138W   25355.31768326  .00000071  00000+0  14206-3 0  9991
2 54133  87.9217 309.8963 0000960  81.8422 278.2820 13.20770449155827
ONEWEB-0516             
1 54134U 22138X   25355.50847701  .00000026  00000+0  33070-4 0  9999
2 54134  87.9200 340.3333 0001782  80.5566 279.5768 13.19725664153391
ONEWEB-0517             
1 54135U 22138Y   25355.48794199 -.00000035  00000+0 -11917-3 0  9996
2 54135  87.9218 340.3188 0002028  90.8360 269.3005 13.19724648153391
ONEWEB-0518             
1 54136U 22138Z   25355.50690123  .00000110  00000+0  24253-3 0  9991
2 54136  87.9194 340.3355 0001907  81.2808 278.8541 13.19725184153393
ONEWEB-0519             
1 54137U 22138AA  25355.45635769  .00000134  00000+0  30149-3 0  9998
2 54137  87.9208 340.3164 0001969  90.1637 269.9721 13.19726265153397
ONEWEB-0520             
1 54138U 22138AB  25355.49110401 -.00000004  00000+0 -41815-4 0  9995
2 54138  87.9217 340.3139 0001957  75.1686 284.9663 13.19725114153387
ONEWEB-0521             
1 54139U 22138AC  25355.52427607  .00000061  00000+0  12107-3 0  9991
2 54139  87.9212 340.2919 0001930  92.7200 267.4154 13.19725093153338
ONEWEB-0522             
1 54140U 22138AD  25355.50374093  .00000023  00000+0  24587-4 0  9995
2 54140  87.9212 340.2975 0001948  82.3268 277.8086 13.19724961153376
ONEWEB-0523             
1 54141U 22138AE  25355.15353277  .00000046  00000+0  82030-4 0  9990
2 54141  87.9215 309.9459 0001386 105.2672 254.8615 13.20770731155800
ONEWEB-0524             
1 54142U 22138AF  25355.44551985  .00000141  00000+0  31521-3 0  9993
2 54142  87.9204 309.8897 0000971  64.4223 295.7011 13.20771300155842
ONEWEB-0525             
1 54143U 22138AG  25355.52269679  .00000103  00000+0  22565-3 0  9995
2 54143  87.9203 340.3130 0001967  78.6370 281.4983 13.19725412153397
ONEWEB-0526             
1 54144U 22138AH  25355.48004639  .00000015  00000+0  48286-5 0  9996
2 54144  87.9214 340.3107 0001845  82.8394 277.2948 13.19725136153366
ONEWEB-0529             
1 54145U 22138AJ  25355.40738891 -.00000014  00000+0 -66663-4 0  9992
2 54145  87.9202 340.3515 0001924  78.9507 281.1842 13.19725290153376
ONEWEB-0531             
1 54146U 22138AK  25355.35556365 -.00000019  00000+0 -78972-4 0  9992
2 54146  87.9215 309.9018 0001041 102.4788 257.6462 13.20771499155837
ONEWEB-0535             
1 54147U 22138AL  25355.51637394  .00000052  00000+0  98795-4 0  9993
2 54147  87.9210 340.2985 0001720  98.1064 262.0264 13.19723649153409
ONEWEB-0536             
1 54148U 22138AM  25354.88838896  .00000053  00000+0  97782-4 0  9999
2 54148  87.9206 310.0374 0000852  97.6834 262.4396 13.20770322155769
ONEWEB-0527             
1 54642U 22166A   25355.51126068  .00000150  00000+0  33064-3 0  9991
2 54642  87.9226 279.4388 0001725  74.9937 285.1387 13.21825205148064
ONEWEB-0528             
1 54643U 22166B   25355.51785016  .00000103  00000+0  21718-3 0  9997
2 54643  87.9224 279.4416 0001788  73.0154 287.1176 13.21824489148077
ONEWEB-0539             
1 54644U 22166C   25355.25290874  .00000072  00000+0  14269-3 0  9990
2 54644  87.9222 279.4598 0002003  76.9341 283.2016 13.21827227148037
ONEWEB-0540             
1 54645U 22166D   25355.18393732  .00000021  00000+0  20438-4 0  9990
2 54645  87.9222 279.5113 0001851  80.6534 279.4809 13.21825538148016
ONEWEB-0542             
1 54646U 22166E   25355.48987926  .00000021  00000+0  19331-4 0  9998
2 54646  87.9222 279.4085 0002068  84.0051 276.1318 13.21826621148065
ONEWEB-0545             
1 54647U 22166F   25355.22822312  .00000088  00000+0  18180-3 0  9991
2 54647  87.9226 279.4816 0002117  83.1671 276.9704 13.21827826147991
ONEWEB-0580             
1 54648U 22166G   25355.50469021  .00000088  00000+0  18234-3 0  9997
2 54648  87.9226 279.4256 0001970  85.6138 274.5221 13.21826522148071
ONEWEB-0582             
1 54649U 22166H   25355.54747093 -.00000030  00000+0 -10530-3 0  9990
2 54649  87.9227 279.4100 0002104  87.7477 272.3898 13.21826280148055
ONEWEB-0583             
1 54650U 22166J   25355.33190192 -.00000053  00000+0 -15968-3 0  9996
2 54650  87.9223 279.4774 0001905  77.5308 282.6039 13.21825609148031
ONEWEB-0584             
1 54651U 22166K   25355.50303899  .00000066  00000+0  12873-3 0  9990
2 54651  87.9225 279.4300 0001902  87.0821 273.0531 13.21825426148041
ONEWEB-0585             
1 54652U 22166L   25355.22493840  .00000113  00000+0  24134-3 0  9992
2 54652  87.9224 279.4699 0001679  73.3178 286.8140 13.21825515148010
ONEWEB-0586             
1 54653U 22166M   25355.23810008  .00000055  00000+0  10165-3 0  9997
2 54653  87.9223 279.4927 0001881  78.6105 281.5241 13.21823338148012
ONEWEB-0587             
1 54654U 22166N   25355.55076137 -.00000030  00000+0 -10529-3 0  9999
2 54654  87.9234 279.3870 0001486  64.6277 295.5011 13.21826641148219
